0 ORSTED
1 25635U 99008B   13282.82917978  .00000382  00000-0  10113-3 0  9323
2 25635 096.4466 123.1023 0140722 218.2128 207.5259 14.46743915771469
0 ORSTED
1 25635U 99008B   13284.02355846  .00000400  00000-0  10561-3 0  9336
2 25635 096.4463 124.0132 0140812 214.3927 308.1947 14.46745584771636
0 ORSTED
1 25635U 99008B   13286.15907478  .00000453  00000-0  11845-3 0  9352
2 25635 096.4459 125.6419 0141022 207.5689 270.5929 14.46746955771948
0 ORSTED
1 25635U 99008B   13287.46213692  .00000558  00000-0  14411-3 0  9364
2 25635 096.4456 126.6357 0141145 203.4088 217.3290 14.46747986772138
0 ORSTED
1 25635U 99008B   13288.49888271  .00000795  00000-0  20179-3 0  9371
2 25635 096.4455 127.4262 0141233 200.1003 217.0130 14.46750148772280
0 ORSTED
1 25635U 99008B   13289.53562225  .00000668  00000-0  17081-3 0  9383
2 25635 096.4454 128.2168 0141333 196.7909 216.6712 14.46751933772430
0 ORSTED
1 25635U 99008B   13291.13774022  .00000575  00000-0  14795-3 0  9399
2 25635 096.4454 129.4383 0141482 191.6823 280.9995 14.46754253772666
0 ORSTED
1 25635U 99008B   13292.17663458  .00000600  00000-0  15398-3 0  9405
2 25635 096.4454 130.2304 0141592 188.3766 291.8847 14.46755468772813
0 ORSTED
1 25635U 99008B   13293.47912642  .00000619  00000-0  15863-3 0  9419
2 25635 096.4453 131.2235 0141690 184.2326 235.6747 14.46757568773002
0 ORSTED
1 25635U 99008B   13294.51116552  .00000584  00000-0  14997-3 0  9420
2 25635 096.4454 132.0104 0141784 180.9564 210.8594 14.46759214773159
0 ORSTED
1 25635U 99008B   13295.61985297  .00000673  00000-0  17167-3 0  9434
2 25635 096.4453 132.8557 0141866 177.4286 225.2699 14.46760161773318
